{
  "norad_id": 65514,
  "name": "STARLINK-35026",
  "history": [
    {
      "epoch": "2026-03-28T16:29:55.567680Z",
      "apogee_km": 476.0619550836409,
      "perigee_km": 474.2820136742175,
      "latitude_deg": 1.7095286146687672e-05,
      "longitude_deg": 109.52636453650688,
      "height_km": 475.9838150319339,
      "semi_major_axis_km": 6853.308984378929,
      "eccentricity": 0.00012986,
      "inclination_deg": 53.1578,
      "raan_deg": 183.1122,
      "arg_perigee_deg": 84.4559,
      "mean_anomaly_deg": 275.659,
      "mean_motion_rev_day": 15.3021443
    },
    {
      "epoch": "2026-03-29T20:42:54.858816Z",
      "apogee_km": 476.32681972021874,
      "perigee_km": 474.31327403984506,
      "latitude_deg": 9.949689665760718e-06,
      "longitude_deg": 39.65790389259543,
      "height_km": 475.7417836130726,
      "semi_major_axis_km": 6853.457046880031,
      "eccentricity": 0.0001469,
      "inclination_deg": 53.1575,
      "raan_deg": 177.6496,
      "arg_perigee_deg": 61.782,
      "mean_anomaly_deg": 298.3329,
      "mean_motion_rev_day": 15.30164842
    },
    {
      "epoch": "2026-03-30T06:07:15.416256Z",
      "apogee_km": 476.18806909478735,
      "perigee_km": 474.54624363908897,
      "latitude_deg": 4.860837952137081e-05,
      "longitude_deg": -103.63430174043563,
      "height_km": 476.0354878316767,
      "semi_major_axis_km": 6853.504156366938,
      "eccentricity": 0.00011978,
      "inclination_deg": 53.159,
      "raan_deg": 175.8293,
      "arg_perigee_deg": 73.7455,
      "mean_anomaly_deg": 286.3678,
      "mean_motion_rev_day": 15.30149065
    },
    {
      "epoch": "2026-03-30T12:23:28.357152Z",
      "apogee_km": 476.2655974122126,
      "perigee_km": 474.0844623255871,
      "latitude_deg": -2.6108041564233458e-05,
      "longitude_deg": 160.84721200924304,
      "height_km": 475.6178727276679,
      "semi_major_axis_km": 6853.3120298689,
      "eccentricity": 0.00015913,
      "inclination_deg": 53.1596,
      "raan_deg": 174.6223,
      "arg_perigee_deg": 65.3433,
      "mean_anomaly_deg": 294.7733,
      "mean_motion_rev_day": 15.3021341
    },
    {
      "epoch": "2026-03-31T11:54:14.219424Z",
      "apogee_km": 476.06693185067707,
      "perigee_km": 474.5057220168028,
      "latitude_deg": 3.6066408964950165e-05,
      "longitude_deg": 162.6351328876491,
      "height_km": 476.0610290481496,
      "semi_major_axis_km": 6853.42332693374,
      "eccentricity": 0.0001139,
      "inclination_deg": 53.16,
      "raan_deg": 170.0669,
      "arg_perigee_deg": 80.8926,
      "mean_anomaly_deg": 279.2204,
      "mean_motion_rev_day": 15.30176135
    },
    {
      "epoch": "2026-04-01T11:25:02.499168Z",
      "apogee_km": 476.0925059834508,
      "perigee_km": 474.38327428585126,
      "latitude_deg": 5.4317732640208505e-05,
      "longitude_deg": 164.41772070239548,
      "height_km": 476.0837183608469,
      "semi_major_axis_km": 6853.374890134651,
      "eccentricity": 0.0001247,
      "inclination_deg": 53.1595,
      "raan_deg": 165.5163,
      "arg_perigee_deg": 86.497,
      "mean_anomaly_deg": 273.6174,
      "mean_motion_rev_day": 15.30192357
    }
  ]
}